CCSDS_OMM_VERS = 2.0
CREATION_DATE  = 
ORIGINATOR     = 

OBJECT_NAME    = STARLINK-36482
OBJECT_ID      = 2026-002E
CENTER_NAME    = EARTH
REF_FRAME      = TEME
TIME_SYSTEM    = UTC
MEAN_ELEMENT_THEORY = SGP/SGP4

EPOCH          = 2026-01-16T22:00:01.999584
MEAN_MOTION    = 15.83268894
ECCENTRICITY   = .00014779
INCLINATION    = 42.9971
RA_OF_ASC_NODE = 263.9846
ARG_OF_PERICENTER = 268.4426
MEAN_ANOMALY   = 270.1257

EPHEMERIS_TYPE = 0
CLASSIFICATION_TYPE = U
NORAD_CAT_ID   = 67309
ELEMENT_SET_NO = 999
REV_AT_EPOCH   = 309
BSTAR          = -.70768164E-2
MEAN_MOTION_DOT = -.1407331E-1
MEAN_MOTION_DDOT = 0

CCSDS_OMM_VERS = 2.0
CREATION_DATE  = 
ORIGINATOR     = 

OBJECT_NAME    = STARLINK-36491
OBJECT_ID      = 2026-002F
CENTER_NAME    = EARTH
REF_FRAME      = TEME
TIME_SYSTEM    = UTC
MEAN_ELEMENT_THEORY = SGP/SGP4

EPOCH          = 2026-01-16T22:00:01.999584
MEAN_MOTION    = 15.83361637
ECCENTRICITY   = .00015213
INCLINATION    = 42.9970
RA_OF_ASC_NODE = 264.0261
ARG_OF_PERICENTER = 277.6892
MEAN_ANOMALY   = 244.2644

EPHEMERIS_TYPE = 0
CLASSIFICATION_TYPE = U
NORAD_CAT_ID   = 67310
ELEMENT_SET_NO = 999
REV_AT_EPOCH   = 309
BSTAR          = -.67816193E-2
MEAN_MOTION_DOT = -.1335087E-1
MEAN_MOTION_DDOT = 0

CCSDS_OMM_VERS = 2.0
CREATION_DATE  = 
ORIGINATOR     = 

OBJECT_NAME    = STARLINK-36495
OBJECT_ID      = 2026-002G
CENTER_NAME    = EARTH
REF_FRAME      = TEME
TIME_SYSTEM    = UTC
MEAN_ELEMENT_THEORY = SGP/SGP4

EPOCH          = 2026-01-16T22:00:01.999584
MEAN_MOTION    = 15.83325605
ECCENTRICITY   = .00015453
INCLINATION    = 42.9969
RA_OF_ASC_NODE = 264.0082
ARG_OF_PERICENTER = 276.2611
MEAN_ANOMALY   = 252.7123

EPHEMERIS_TYPE = 0
CLASSIFICATION_TYPE = U
NORAD_CAT_ID   = 67311
ELEMENT_SET_NO = 999
REV_AT_EPOCH   = 325
BSTAR          = -.68826404E-2
MEAN_MOTION_DOT = -.135043E-1
MEAN_MOTION_DDOT = 0

CCSDS_OMM_VERS = 2.0
CREATION_DATE  = 
ORIGINATOR     = 

OBJECT_NAME    = STARLINK-36485
OBJECT_ID      = 2026-002H
CENTER_NAME    = EARTH
REF_FRAME      = TEME
TIME_SYSTEM    = UTC
MEAN_ELEMENT_THEORY = SGP/SGP4

EPOCH          = 2026-01-16T22:00:01.999584
MEAN_MOTION    = 15.83286016
ECCENTRICITY   = .00015308
INCLINATION    = 42.9970
RA_OF_ASC_NODE = 264.0012
ARG_OF_PERICENTER = 271.4564
MEAN_ANOMALY   = 260.2809

EPHEMERIS_TYPE = 0
CLASSIFICATION_TYPE = U
NORAD_CAT_ID   = 67312
ELEMENT_SET_NO = 999
REV_AT_EPOCH   = 309
BSTAR          = -.69217663E-2
MEAN_MOTION_DOT = -.1354869E-1
MEAN_MOTION_DDOT = 0

CCSDS_OMM_VERS = 2.0
CREATION_DATE  = 
ORIGINATOR     = 

OBJECT_NAME    = STARLINK-36445
OBJECT_ID      = 2026-002J
CENTER_NAME    = EARTH
REF_FRAME      = TEME
TIME_SYSTEM    = UTC
MEAN_ELEMENT_THEORY = SGP/SGP4

EPOCH          = 2026-01-16T22:00:01.999584
MEAN_MOTION    = 15.83306572
ECCENTRICITY   = .00015283
INCLINATION    = 42.9966
RA_OF_ASC_NODE = 263.9963
ARG_OF_PERICENTER = 275.7303
MEAN_ANOMALY   = 257.8650

EPHEMERIS_TYPE = 0
CLASSIFICATION_TYPE = U
NORAD_CAT_ID   = 67313
ELEMENT_SET_NO = 999
REV_AT_EPOCH   = 325
BSTAR          = -.69478703E-2
MEAN_MOTION_DOT = -.1360495E-1
MEAN_MOTION_DDOT = 0

CCSDS_OMM_VERS = 2.0
CREATION_DATE  = 
ORIGINATOR     = 

OBJECT_NAME    = STARLINK-36476
OBJECT_ID      = 2026-002K
CENTER_NAME    = EARTH
REF_FRAME      = TEME
TIME_SYSTEM    = UTC
MEAN_ELEMENT_THEORY = SGP/SGP4

EPOCH          = 2026-01-16T22:00:01.999584
MEAN_MOTION    = 15.83272791
ECCENTRICITY   = .00014921
INCLINATION    = 42.9970
RA_OF_ASC_NODE = 263.9898
ARG_OF_PERICENTER = 269.6950
MEAN_ANOMALY   = 266.6345

EPHEMERIS_TYPE = 0
CLASSIFICATION_TYPE = U
NORAD_CAT_ID   = 67314
ELEMENT_SET_NO = 999
REV_AT_EPOCH   = 309
BSTAR          = -.70294608E-2
MEAN_MOTION_DOT = -.1372438E-1
MEAN_MOTION_DDOT = 0

CCSDS_OMM_VERS = 2.0
CREATION_DATE  = 
ORIGINATOR     = 

OBJECT_NAME    = STARLINK-36463
OBJECT_ID      = 2026-002L
CENTER_NAME    = EARTH
REF_FRAME      = TEME
TIME_SYSTEM    = UTC
MEAN_ELEMENT_THEORY = SGP/SGP4

EPOCH          = 2026-01-16T22:00:01.999584
MEAN_MOTION    = 15.83262509
ECCENTRICITY   = .00014614
INCLINATION    = 42.9968
RA_OF_ASC_NODE = 263.9776
ARG_OF_PERICENTER = 271.5695
MEAN_ANOMALY   = 269.3795

EPHEMERIS_TYPE = 0
CLASSIFICATION_TYPE = U
NORAD_CAT_ID   = 67315
ELEMENT_SET_NO = 999
REV_AT_EPOCH   = 315
BSTAR          = -.71986052E-2
MEAN_MOTION_DOT = -.142845E-1
MEAN_MOTION_DDOT = 0

CCSDS_OMM_VERS = 2.0
CREATION_DATE  = 
ORIGINATOR     = 

OBJECT_NAME    = STARLINK-36461
OBJECT_ID      = 2026-002M
CENTER_NAME    = EARTH
REF_FRAME      = TEME
TIME_SYSTEM    = UTC
MEAN_ELEMENT_THEORY = SGP/SGP4

EPOCH          = 2026-01-16T22:00:01.999584
MEAN_MOTION    = 15.83227975
ECCENTRICITY   = .00014787
INCLINATION    = 42.9968
RA_OF_ASC_NODE = 263.9703
ARG_OF_PERICENTER = 274.5746
MEAN_ANOMALY   = 269.2629

EPHEMERIS_TYPE = 0
CLASSIFICATION_TYPE = U
NORAD_CAT_ID   = 67316
ELEMENT_SET_NO = 999
REV_AT_EPOCH   = 325
BSTAR          = -.74759085E-2
MEAN_MOTION_DOT = -.1474959E-1
MEAN_MOTION_DDOT = 0

CCSDS_OMM_VERS = 2.0
CREATION_DATE  = 
ORIGINATOR     = 

OBJECT_NAME    = STARLINK-36450
OBJECT_ID      = 2026-002N
CENTER_NAME    = EARTH
REF_FRAME      = TEME
TIME_SYSTEM    = UTC
MEAN_ELEMENT_THEORY = SGP/SGP4

EPOCH          = 2026-01-16T22:00:01.999584
MEAN_MOTION    = 15.83220522
ECCENTRICITY   = .00014241
INCLINATION    = 42.9968
RA_OF_ASC_NODE = 263.9645
ARG_OF_PERICENTER = 275.5920
MEAN_ANOMALY   = 270.5827

EPHEMERIS_TYPE = 0
CLASSIFICATION_TYPE = U
NORAD_CAT_ID   = 67317
ELEMENT_SET_NO = 999
REV_AT_EPOCH   = 325
BSTAR          = -.76320665E-2
MEAN_MOTION_DOT = -.1501613E-1
MEAN_MOTION_DDOT = 0

CCSDS_OMM_VERS = 2.0
CREATION_DATE  = 
ORIGINATOR     = 

OBJECT_NAME    = STARLINK-36498
OBJECT_ID      = 2026-002P
CENTER_NAME    = EARTH
REF_FRAME      = TEME
TIME_SYSTEM    = UTC
MEAN_ELEMENT_THEORY = SGP/SGP4

EPOCH          = 2026-01-16T22:00:01.999584
MEAN_MOTION    = 15.83170635
ECCENTRICITY   = .00014238
INCLINATION    = 42.9967
RA_OF_ASC_NODE = 263.9520
ARG_OF_PERICENTER = 270.0796
MEAN_ANOMALY   = 280.9939

EPHEMERIS_TYPE = 0
CLASSIFICATION_TYPE = U
NORAD_CAT_ID   = 67318
ELEMENT_SET_NO = 999
REV_AT_EPOCH   = 315
BSTAR          = -.79007257E-2
MEAN_MOTION_DOT = -.1544756E-1
MEAN_MOTION_DDOT = 0

CCSDS_OMM_VERS = 2.0
CREATION_DATE  = 
ORIGINATOR     = 

OBJECT_NAME    = STARLINK-36470
OBJECT_ID      = 2026-002Q
CENTER_NAME    = EARTH
REF_FRAME      = TEME
TIME_SYSTEM    = UTC
MEAN_ELEMENT_THEORY = SGP/SGP4

EPOCH          = 2026-01-16T22:00:01.999584
MEAN_MOTION    = 15.83199574
ECCENTRICITY   = .00014099
INCLINATION    = 42.9969
RA_OF_ASC_NODE = 263.9583
ARG_OF_PERICENTER = 274.3010
MEAN_ANOMALY   = 274.3238

EPHEMERIS_TYPE = 0
CLASSIFICATION_TYPE = U
NORAD_CAT_ID   = 67319
ELEMENT_SET_NO = 999
REV_AT_EPOCH   = 315
BSTAR          = -.77872642E-2
MEAN_MOTION_DOT = -.1527102E-1
MEAN_MOTION_DDOT = 0

CCSDS_OMM_VERS = 2.0
CREATION_DATE  = 
ORIGINATOR     = 

OBJECT_NAME    = STARLINK-36500
OBJECT_ID      = 2026-002R
CENTER_NAME    = EARTH
REF_FRAME      = TEME
TIME_SYSTEM    = UTC
MEAN_ELEMENT_THEORY = SGP/SGP4

EPOCH          = 2026-01-16T22:00:01.999584
MEAN_MOTION    = 15.83135919
ECCENTRICITY   = .00014494
INCLINATION    = 42.9970
RA_OF_ASC_NODE = 263.9465
ARG_OF_PERICENTER = 274.5393
MEAN_ANOMALY   = 278.9314

EPHEMERIS_TYPE = 0
CLASSIFICATION_TYPE = U
NORAD_CAT_ID   = 67320
ELEMENT_SET_NO = 999
REV_AT_EPOCH   = 315
BSTAR          = -.79340269E-2
MEAN_MOTION_DOT = -.1548225E-1
MEAN_MOTION_DDOT = 0

