STARLINK-36482          
1 67309U 26002E   26016.91668981 -.01407331  00000+0 -70768-2 0  9998
2 67309  42.9971 263.9846 0001477 268.4426 270.1257 15.83268894  3098
STARLINK-36491          
1 67310U 26002F   26016.91668981 -.01335087  00000+0 -67816-2 0  9998
2 67310  42.9970 264.0261 0001521 277.6892 244.2644 15.83361637  3092
STARLINK-36495          
1 67311U 26002G   26016.91668981 -.01350430  00000+0 -68826-2 0  9990
2 67311  42.9969 264.0082 0001545 276.2611 252.7123 15.83325605  3251
STARLINK-36485          
1 67312U 26002H   26016.91668981 -.01354869  00000+0 -69218-2 0  9997
2 67312  42.9970 264.0012 0001530 271.4564 260.2809 15.83286016  3094
STARLINK-36445          
1 67313U 26002J   26016.91668981 -.01360495  00000+0 -69479-2 0  9999
2 67313  42.9966 263.9963 0001528 275.7303 257.8650 15.83306572  3252
STARLINK-36476          
1 67314U 26002K   26016.91668981 -.01372438  00000+0 -70295-2 0  9998
2 67314  42.9970 263.9898 0001492 269.6950 266.6345 15.83272791  3091
STARLINK-36463          
1 67315U 26002L   26016.91668981 -.01428450  00000+0 -71986-2 0  9993
2 67315  42.9968 263.9776 0001461 271.5695 269.3795 15.83262509  3150
STARLINK-36461          
1 67316U 26002M   26016.91668981 -.01474959  00000+0 -74759-2 0  9990
2 67316  42.9968 263.9703 0001478 274.5746 269.2629 15.83227975  3253
STARLINK-36450          
1 67317U 26002N   26016.91668981 -.01501613  00000+0 -76321-2 0  9996
2 67317  42.9968 263.9645 0001424 275.5920 270.5827 15.83220522  3251
STARLINK-36498          
1 67318U 26002P   26016.91668981 -.01544756  00000+0 -79007-2 0  9996
2 67318  42.9967 263.9520 0001423 270.0796 280.9939 15.83170635  3150
STARLINK-36470          
1 67319U 26002Q   26016.91668981 -.01527102  00000+0 -77873-2 0  9992
2 67319  42.9969 263.9583 0001409 274.3010 274.3238 15.83199574  3154
STARLINK-36500          
1 67320U 26002R   26016.91668981 -.01548225  00000+0 -79340-2 0  9994
2 67320  42.9970 263.9465 0001449 274.5393 278.9314 15.83135919  3155
